[
  {
    "OBJECT_NAME": "DRAGONFLY",
    "OBJECT_ID": "1998-067XH",
    "EPOCH": "2025-11-10T04:52:41.525760",
    "MEAN_MOTION": 15.61642778,
    "ECCENTRICITY": 0.00044724,
    "INCLINATION": 51.6309,
    "RA_OF_ASC_NODE": 301.027,
    "ARG_OF_PERICENTER": 103.5931,
    "MEAN_ANOMALY": 256.5562,
    "EPHEMERIS_TYPE": 0,
    "CLASSIFICATION_TYPE": "U",
    "NORAD_CAT_ID": 65729,
    "ELEMENT_SET_NO": 999,
    "REV_AT_EPOCH": 806,
    "BSTAR": 0.0014111069,
    "MEAN_MOTION_DOT": 0.00125354,
    "MEAN_MOTION_DDOT": 0
  },
  {
    "OBJECT_NAME": "1998-067XJ",
    "OBJECT_ID": "1998-067XJ",
    "EPOCH": "2025-11-10T08:57:27.543744",
    "MEAN_MOTION": 15.73579673,
    "ECCENTRICITY": 0.00112051,
    "INCLINATION": 51.6266,
    "RA_OF_ASC_NODE": 298.3998,
    "ARG_OF_PERICENTER": 88.9668,
    "MEAN_ANOMALY": 271.2615,
    "EPHEMERIS_TYPE": 0,
    "CLASSIFICATION_TYPE": "U",
    "NORAD_CAT_ID": 65730,
    "ELEMENT_SET_NO": 999,
    "REV_AT_EPOCH": 811,
    "BSTAR": 0.0026807937,
    "MEAN_MOTION_DOT": 0.00402379,
    "MEAN_MOTION_DDOT": 0
  },
  {
    "OBJECT_NAME": "1998-067XK",
    "OBJECT_ID": "1998-067XK",
    "EPOCH": "2025-11-10T08:50:35.183328",
    "MEAN_MOTION": 15.59100647,
    "ECCENTRICITY": 0.00054134,
    "INCLINATION": 51.6323,
    "RA_OF_ASC_NODE": 300.6315,
    "ARG_OF_PERICENTER": 81.8252,
    "MEAN_ANOMALY": 278.3355,
    "EPHEMERIS_TYPE": 0,
    "CLASSIFICATION_TYPE": "U",
    "NORAD_CAT_ID": 65731,
    "ELEMENT_SET_NO": 999,
    "REV_AT_EPOCH": 808,
    "BSTAR": 0.0011217133,
    "MEAN_MOTION_DOT": 0.00089887,
    "MEAN_MOTION_DDOT": 0
  },
  {
    "OBJECT_NAME": "RSP-03",
    "OBJECT_ID": "1998-067XL",
    "EPOCH": "2025-11-10T16:05:33.792864",
    "MEAN_MOTION": 15.60407504,
    "ECCENTRICITY": 0.00062693,
    "INCLINATION": 51.6308,
    "RA_OF_ASC_NODE": 298.8977,
    "ARG_OF_PERICENTER": 83.6798,
    "MEAN_ANOMALY": 276.4909,
    "EPHEMERIS_TYPE": 0,
    "CLASSIFICATION_TYPE": "U",
    "NORAD_CAT_ID": 65732,
    "ELEMENT_SET_NO": 999,
    "REV_AT_EPOCH": 814,
    "BSTAR": 0.0013043293,
    "MEAN_MOTION_DOT": 0.00110268,
    "MEAN_MOTION_DDOT": 0
  },
  {
    "OBJECT_NAME": "GHS-01",
    "OBJECT_ID": "1998-067XM",
    "EPOCH": "2025-11-10T04:34:23.740320",
    "MEAN_MOTION": 15.62569682,
    "ECCENTRICITY": 0.00049109,
    "INCLINATION": 51.6314,
    "RA_OF_ASC_NODE": 300.9445,
    "ARG_OF_PERICENTER": 100.8463,
    "MEAN_ANOMALY": 259.3084,
    "EPHEMERIS_TYPE": 0,
    "CLASSIFICATION_TYPE": "U",
    "NORAD_CAT_ID": 65733,
    "ELEMENT_SET_NO": 999,
    "REV_AT_EPOCH": 807,
    "BSTAR": 0.0015479616,
    "MEAN_MOTION_DOT": 0.00142942,
    "MEAN_MOTION_DDOT": 0
  },
  {
    "OBJECT_NAME": "YOTSUBA-KULOVER",
    "OBJECT_ID": "1998-067XN",
    "EPOCH": "2025-11-10T08:42:02.638656",
    "MEAN_MOTION": 15.54390263,
    "ECCENTRICITY": 0.0002626,
    "INCLINATION": 51.6325,
    "RA_OF_ASC_NODE": 302.0873,
    "ARG_OF_PERICENTER": 37.8378,
    "MEAN_ANOMALY": 322.2797,
    "EPHEMERIS_TYPE": 0,
    "CLASSIFICATION_TYPE": "U",
    "NORAD_CAT_ID": 65941,
    "ELEMENT_SET_NO": 999,
    "REV_AT_EPOCH": 481,
    "BSTAR": 0.0010464625,
    "MEAN_MOTION_DOT": 0.00070081,
    "MEAN_MOTION_DDOT": 0
  },
  {
    "OBJECT_NAME": "BOTAN",
    "OBJECT_ID": "1998-067XP",
    "EPOCH": "2025-11-10T16:07:31.962144",
    "MEAN_MOTION": 15.55690209,
    "ECCENTRICITY": 0.00048579,
    "INCLINATION": 51.6318,
    "RA_OF_ASC_NODE": 300.4058,
    "ARG_OF_PERICENTER": 51.7839,
    "MEAN_ANOMALY": 308.3589,
    "EPHEMERIS_TYPE": 0,
    "CLASSIFICATION_TYPE": "U",
    "NORAD_CAT_ID": 65942,
    "ELEMENT_SET_NO": 999,
    "REV_AT_EPOCH": 486,
    "BSTAR": 0.0014036038,
    "MEAN_MOTION_DOT": 0.00099177,
    "MEAN_MOTION_DDOT": 0
  },
  {
    "OBJECT_NAME": "E-KAGAKU-1",
    "OBJECT_ID": "1998-067XQ",
    "EPOCH": "2025-11-10T08:41:24.679680",
    "MEAN_MOTION": 15.54388914,
    "ECCENTRICITY": 0.00044205,
    "INCLINATION": 51.6331,
    "RA_OF_ASC_NODE": 302.0857,
    "ARG_OF_PERICENTER": 37.7035,
    "MEAN_ANOMALY": 322.4265,
    "EPHEMERIS_TYPE": 0,
    "CLASSIFICATION_TYPE": "U",
    "NORAD_CAT_ID": 65943,
    "ELEMENT_SET_NO": 999,
    "REV_AT_EPOCH": 481,
    "BSTAR": 0.0010471991,
    "MEAN_MOTION_DOT": 0.00070143,
    "MEAN_MOTION_DDOT": 0
  },
  {
    "OBJECT_NAME": "HRC MONOBLOCK CAMERA",
    "OBJECT_ID": "1998-067XR",
    "EPOCH": "2025-11-10T15:56:08.125152",
    "MEAN_MOTION": 15.51285423,
    "ECCENTRICITY": 0.00047253,
    "INCLINATION": 51.6317,
    "RA_OF_ASC_NODE": 301.0993,
    "ARG_OF_PERICENTER": 52.1599,
    "MEAN_ANOMALY": 307.9817,
    "EPHEMERIS_TYPE": 0,
    "CLASSIFICATION_TYPE": "U",
    "NORAD_CAT_ID": 66052,
    "ELEMENT_SET_NO": 999,
    "REV_AT_EPOCH": 385,
    "BSTAR": 0.00065162174,
    "MEAN_MOTION_DOT": 0.00038666,
    "MEAN_MOTION_DDOT": 0
  },
  {
    "OBJECT_NAME": "HTV-X1",
    "OBJECT_ID": "2025-241A",
    "EPOCH": "2025-11-10T19:21:41.474592",
    "MEAN_MOTION": 15.49512626,
    "ECCENTRICITY": 0.00041371,
    "INCLINATION": 51.6337,
    "RA_OF_ASC_NODE": 300.5531,
    "ARG_OF_PERICENTER": 56.1394,
    "MEAN_ANOMALY": 303.9988,
    "EPHEMERIS_TYPE": 0,
    "CLASSIFICATION_TYPE": "U",
    "NORAD_CAT_ID": 66174,
    "ELEMENT_SET_NO": 999,
    "REV_AT_EPOCH": 145,
    "BSTAR": 0.00020668468,
    "MEAN_MOTION_DOT": 0.00011159,
    "MEAN_MOTION_DDOT": 0
  },
  {
    "OBJECT_NAME": "SHENZHOU-21 (SZ-21)",
    "OBJECT_ID": "2025-246A",
    "EPOCH": "2025-11-10T22:38:39.077376",
    "MEAN_MOTION": 15.60859823,
    "ECCENTRICITY": 0.00047056,
    "INCLINATION": 41.4651,
    "RA_OF_ASC_NODE": 209.7335,
    "ARG_OF_PERICENTER": 1.026,
    "MEAN_ANOMALY": 359.0588,
    "EPHEMERIS_TYPE": 0,
    "CLASSIFICATION_TYPE": "U",
    "NORAD_CAT_ID": 66263,
    "ELEMENT_SET_NO": 999,
    "REV_AT_EPOCH": 25813,
    "BSTAR": 0.0004154796,
    "MEAN_MOTION_DOT": 0.00035552,
    "MEAN_MOTION_DDOT": 0
  },
  {
    "OBJECT_NAME": "CZ-2F R/B",
    "OBJECT_ID": "2025-246B",
    "EPOCH": "2025-11-10T19:16:52.434624",
    "MEAN_MOTION": 16.29944316,
    "ECCENTRICITY": 0.0046794,
    "INCLINATION": 41.453,
    "RA_OF_ASC_NODE": 205.7642,
    "ARG_OF_PERICENTER": 210.2889,
    "MEAN_ANOMALY": 149.5268,
    "EPHEMERIS_TYPE": 0,
    "CLASSIFICATION_TYPE": "U",
    "NORAD_CAT_ID": 66264,
    "ELEMENT_SET_NO": 999,
    "REV_AT_EPOCH": 164,
    "BSTAR": 0.00050986081,
    "MEAN_MOTION_DOT": 0.03527156,
    "MEAN_MOTION_DDOT": 7.795976e-6
  }
]